[{"OBJECT_NAME":"STARLINK-4385","OBJECT_ID":"2022-084K","EPOCH":"2025-11-08T03:08:59.264736","MEAN_MOTION":15.01246291,"ECCENTRICITY":0.00013625,"INCLINATION":97.6039,"RA_OF_ASC_NODE":11.1903,"ARG_OF_PERICENTER":119.0582,"MEAN_ANOMALY":241.0779,"EPHEMERIS_TYPE":0,"CLASSIFICATION_TYPE":"U","NORAD_CAT_ID":53198,"ELEMENT_SET_NO":999,"REV_AT_EPOCH":18173,"BSTAR":-9.1800709e-5,"MEAN_MOTION_DOT":-1.237e-5,"MEAN_MOTION_DDOT":0},{"OBJECT_NAME":"STARLINK-4395","OBJECT_ID":"2022-084L","EPOCH":"2025-11-08T10:33:12.799008","MEAN_MOTION":15.05647752,"ECCENTRICITY":0.0001949,"INCLINATION":97.6034,"RA_OF_ASC_NODE":11.691,"ARG_OF_PERICENTER":104.4626,"MEAN_ANOMALY":255.6817,"EPHEMERIS_TYPE":0,"CLASSIFICATION_TYPE":"U","NORAD_CAT_ID":53199,"ELEMENT_SET_NO":999,"REV_AT_EPOCH":18113,"BSTAR":4.8779e-5,"MEAN_MOTION_DOT":6.43e-6,"MEAN_MOTION_DDOT":0},{"OBJECT_NAME":"STARLINK-4417","OBJECT_ID":"2022-084M","EPOCH":"2025-11-08T09:25:25.057632","MEAN_MOTION":15.05653995,"ECCENTRICITY":0.0001146,"INCLINATION":97.6055,"RA_OF_ASC_NODE":11.6102,"ARG_OF_PERICENTER":78.6192,"MEAN_ANOMALY":281.5163,"EPHEMERIS_TYPE":0,"CLASSIFICATION_TYPE":"U","NORAD_CAT_ID":53200,"ELEMENT_SET_NO":999,"REV_AT_EPOCH":18178,"BSTAR":3.6953e-5,"MEAN_MOTION_DOT":4.72e-6,"MEAN_MOTION_DDOT":0},{"OBJECT_NAME":"STARLINK-4405","OBJECT_ID":"2022-084N","EPOCH":"2025-11-08T03:26:32.722656","MEAN_MOTION":15.05684692,"ECCENTRICITY":0.00011377,"INCLINATION":97.6003,"RA_OF_ASC_NODE":11.4627,"ARG_OF_PERICENTER":90.409,"MEAN_ANOMALY":269.7267,"EPHEMERIS_TYPE":0,"CLASSIFICATION_TYPE":"U","NORAD_CAT_ID":53201,"ELEMENT_SET_NO":999,"REV_AT_EPOCH":18109,"BSTAR":0.0013652802,"MEAN_MOTION_DOT":0.00019712,"MEAN_MOTION_DDOT":0},{"OBJECT_NAME":"STARLINK-4411","OBJECT_ID":"2022-084P","EPOCH":"2025-11-08T03:54:27.869184","MEAN_MOTION":15.05651241,"ECCENTRICITY":0.00015398,"INCLINATION":97.6021,"RA_OF_ASC_NODE":11.4452,"ARG_OF_PERICENTER":84.5482,"MEAN_ANOMALY":275.592,"EPHEMERIS_TYPE":0,"CLASSIFICATION_TYPE":"U","NORAD_CAT_ID":53202,"ELEMENT_SET_NO":999,"REV_AT_EPOCH":18109,"BSTAR":7.5265938e-5,"MEAN_MOTION_DOT":1.025e-5,"MEAN_MOTION_DDOT":0},{"OBJECT_NAME":"STARLINK-4409","OBJECT_ID":"2022-084Q","EPOCH":"2025-11-08T03:50:28.486752","MEAN_MOTION":15.0565116,"ECCENTRICITY":0.00017426,"INCLINATION":97.6012,"RA_OF_ASC_NODE":11.4338,"ARG_OF_PERICENTER":83.2829,"MEAN_ANOMALY":276.8596,"EPHEMERIS_TYPE":0,"CLASSIFICATION_TYPE":"U","NORAD_CAT_ID":53203,"ELEMENT_SET_NO":999,"REV_AT_EPOCH":18109,"BSTAR":5.9030497e-5,"MEAN_MOTION_DOT":7.91e-6,"MEAN_MOTION_DDOT":0},{"OBJECT_NAME":"STARLINK-4410","OBJECT_ID":"2022-084R","EPOCH":"2025-11-08T10:55:53.075424","MEAN_MOTION":15.01299771,"ECCENTRICITY":0.000201,"INCLINATION":97.606,"RA_OF_ASC_NODE":11.5219,"ARG_OF_PERICENTER":172.4164,"MEAN_ANOMALY":187.7091,"EPHEMERIS_TYPE":0,"CLASSIFICATION_TYPE":"U","NORAD_CAT_ID":53204,"ELEMENT_SET_NO":999,"REV_AT_EPOCH":18178,"BSTAR":0.0012209,"MEAN_MOTION_DOT":0.00015675,"MEAN_MOTION_DDOT":0},{"OBJECT_NAME":"STARLINK-4397","OBJECT_ID":"2022-084S","EPOCH":"2025-11-08T10:05:18.068928","MEAN_MOTION":15.05649999,"ECCENTRICITY":0.0001163,"INCLINATION":97.6016,"RA_OF_ASC_NODE":11.6951,"ARG_OF_PERICENTER":89.8671,"MEAN_ANOMALY":270.2689,"EPHEMERIS_TYPE":0,"CLASSIFICATION_TYPE":"U","NORAD_CAT_ID":53205,"ELEMENT_SET_NO":999,"REV_AT_EPOCH":18113,"BSTAR":1.286e-5,"MEAN_MOTION_DOT":1.25e-6,"MEAN_MOTION_DDOT":0},{"OBJECT_NAME":"STARLINK-4408","OBJECT_ID":"2022-084T","EPOCH":"2025-11-08T04:02:26.380896","MEAN_MOTION":15.0565023,"ECCENTRICITY":0.00017885,"INCLINATION":97.6014,"RA_OF_ASC_NODE":11.4246,"ARG_OF_PERICENTER":93.3598,"MEAN_ANOMALY":266.7834,"EPHEMERIS_TYPE":0,"CLASSIFICATION_TYPE":"U","NORAD_CAT_ID":53206,"ELEMENT_SET_NO":999,"REV_AT_EPOCH":18109,"BSTAR":2.8095578e-5,"MEAN_MOTION_DOT":3.45e-6,"MEAN_MOTION_DDOT":0},{"OBJECT_NAME":"STARLINK-4413","OBJECT_ID":"2022-084U","EPOCH":"2025-11-08T10:42:12.583008","MEAN_MOTION":15.01266492,"ECCENTRICITY":0.0002588,"INCLINATION":97.6036,"RA_OF_ASC_NODE":11.5045,"ARG_OF_PERICENTER":90.3167,"MEAN_ANOMALY":269.8354,"EPHEMERIS_TYPE":0,"CLASSIFICATION_TYPE":"U","NORAD_CAT_ID":53207,"ELEMENT_SET_NO":999,"REV_AT_EPOCH":18112,"BSTAR":-2.6461e-5,"MEAN_MOTION_DOT":-3.98e-6,"MEAN_MOTION_DDOT":0},{"OBJECT_NAME":"STARLINK-4425","OBJECT_ID":"2022-084V","EPOCH":"2025-11-08T02:52:57.435744","MEAN_MOTION":15.01265831,"ECCENTRICITY":7.179e-5,"INCLINATION":97.6046,"RA_OF_ASC_NODE":11.1922,"ARG_OF_PERICENTER":130.8123,"MEAN_ANOMALY":229.3163,"EPHEMERIS_TYPE":0,"CLASSIFICATION_TYPE":"U","NORAD_CAT_ID":53208,"ELEMENT_SET_NO":999,"REV_AT_EPOCH":18107,"BSTAR":5.6948801e-5,"MEAN_MOTION_DOT":6.73e-6,"MEAN_MOTION_DDOT":0},{"OBJECT_NAME":"STARLINK-4423","OBJECT_ID":"2022-084W","EPOCH":"2025-11-08T02:40:00.524352","MEAN_MOTION":15.01261876,"ECCENTRICITY":0.00029456,"INCLINATION":97.6029,"RA_OF_ASC_NODE":11.1848,"ARG_OF_PERICENTER":85.3681,"MEAN_ANOMALY":274.788,"EPHEMERIS_TYPE":0,"CLASSIFICATION_TYPE":"U","NORAD_CAT_ID":53209,"ELEMENT_SET_NO":999,"REV_AT_EPOCH":18107,"BSTAR":3.8078764e-5,"MEAN_MOTION_DOT":4.31e-6,"MEAN_MOTION_DDOT":0},{"OBJECT_NAME":"STARLINK-4427","OBJECT_ID":"2022-084X","EPOCH":"2025-11-08T02:47:37.832640","MEAN_MOTION":15.01265417,"ECCENTRICITY":0.00020784,"INCLINATION":97.6033,"RA_OF_ASC_NODE":11.1887,"ARG_OF_PERICENTER":86.951,"MEAN_ANOMALY":273.1952,"EPHEMERIS_TYPE":0,"CLASSIFICATION_TYPE":"U","NORAD_CAT_ID":53210,"ELEMENT_SET_NO":999,"REV_AT_EPOCH":18161,"BSTAR":5.4915196e-5,"MEAN_MOTION_DOT":6.47e-6,"MEAN_MOTION_DDOT":0},{"OBJECT_NAME":"STARLINK-4416","OBJECT_ID":"2022-084Z","EPOCH":"2025-11-08T10:09:16.492320","MEAN_MOTION":15.05660691,"ECCENTRICITY":0.0001989,"INCLINATION":97.6022,"RA_OF_ASC_NODE":11.6854,"ARG_OF_PERICENTER":98.5702,"MEAN_ANOMALY":261.575,"EPHEMERIS_TYPE":0,"CLASSIFICATION_TYPE":"U","NORAD_CAT_ID":53212,"ELEMENT_SET_NO":999,"REV_AT_EPOCH":18112,"BSTAR":0.000233,"MEAN_MOTION_DOT":3.304e-5,"MEAN_MOTION_DDOT":0},{"OBJECT_NAME":"STARLINK-4414","OBJECT_ID":"2022-084AA","EPOCH":"2025-11-08T10:26:12.208128","MEAN_MOTION":15.01263407,"ECCENTRICITY":0.0003494,"INCLINATION":97.601,"RA_OF_ASC_NODE":11.4917,"ARG_OF_PERICENTER":82.0509,"MEAN_ANOMALY":278.1112,"EPHEMERIS_TYPE":0,"CLASSIFICATION_TYPE":"U","NORAD_CAT_ID":53213,"ELEMENT_SET_NO":999,"REV_AT_EPOCH":18164,"BSTAR":-3.0263e-6,"MEAN_MOTION_DOT":-9.7e-7,"MEAN_MOTION_DDOT":0},{"OBJECT_NAME":"STARLINK-4353","OBJECT_ID":"2022-084AB","EPOCH":"2025-11-08T04:12:56.855520","MEAN_MOTION":15.01262747,"ECCENTRICITY":0.00028684,"INCLINATION":97.6032,"RA_OF_ASC_NODE":11.2471,"ARG_OF_PERICENTER":78.4476,"MEAN_ANOMALY":281.707,"EPHEMERIS_TYPE":0,"CLASSIFICATION_TYPE":"U","NORAD_CAT_ID":53214,"ELEMENT_SET_NO":999,"REV_AT_EPOCH":18108,"BSTAR":4.7598071e-5,"MEAN_MOTION_DOT":5.53e-6,"MEAN_MOTION_DDOT":0},{"OBJECT_NAME":"STARLINK-4335","OBJECT_ID":"2022-084AC","EPOCH":"2025-11-08T03:22:33.865536","MEAN_MOTION":15.05649934,"ECCENTRICITY":7.003e-5,"INCLINATION":97.603,"RA_OF_ASC_NODE":11.4162,"ARG_OF_PERICENTER":65.5584,"MEAN_ANOMALY":294.5716,"EPHEMERIS_TYPE":0,"CLASSIFICATION_TYPE":"U","NORAD_CAT_ID":53215,"ELEMENT_SET_NO":999,"REV_AT_EPOCH":18161,"BSTAR":5.224166e-6,"MEAN_MOTION_DOT":1.5e-7,"MEAN_MOTION_DDOT":0}]
