STARLINK-4385           
1 53198U 22084K   25312.13124149 -.00001237  00000+0 -91801-4 0  9997
2 53198  97.6039  11.1903 0001362 119.0582 241.0779 15.01246291181736
STARLINK-4395           
1 53199U 22084L   25312.43973147  .00000643  00000+0  48779-4 0  9995
2 53199  97.6034  11.6910 0001949 104.4626 255.6817 15.05647752181132
STARLINK-4417           
1 53200U 22084M   25312.39265113  .00000472  00000+0  36953-4 0  9991
2 53200  97.6055  11.6102 0001146  78.6192 281.5163 15.05653995181789
STARLINK-4405           
1 53201U 22084N   25312.14343429  .00019712  00000+0  13653-2 0  9999
2 53201  97.6003  11.4627 0001137  90.4090 269.7267 15.05684692181097
STARLINK-4411           
1 53202U 22084P   25312.16282256  .00001025  00000+0  75266-4 0  9990
2 53202  97.6021  11.4452 0001539  84.5482 275.5920 15.05651241181094
STARLINK-4409           
1 53203U 22084Q   25312.16005193  .00000791  00000+0  59030-4 0  9994
2 53203  97.6012  11.4338 0001742  83.2829 276.8596 15.05651160181098
STARLINK-4410           
1 53204U 22084R   25312.45547541  .00015675  00000+0  12209-2 0  9997
2 53204  97.6060  11.5219 0002010 172.4164 187.7091 15.01299771181781
STARLINK-4397           
1 53205U 22084S   25312.42034802  .00000125  00000+0  12860-4 0  9995
2 53205  97.6016  11.6951 0001163  89.8671 270.2689 15.05649999181134
STARLINK-4408           
1 53206U 22084T   25312.16836089  .00000345  00000+0  28096-4 0  9996
2 53206  97.6014  11.4246 0001788  93.3598 266.7834 15.05650230181096
STARLINK-4413           
1 53207U 22084U   25312.44597897 -.00000398  00000+0 -26461-4 0  9993
2 53207  97.6036  11.5045 0002588  90.3167 269.8354 15.01266492181121
STARLINK-4425           
1 53208U 22084V   25312.12010921  .00000673  00000+0  56949-4 0  9995
2 53208  97.6046  11.1922 0000717 130.8123 229.3163 15.01265831181076
STARLINK-4423           
1 53209U 22084W   25312.11111718  .00000431  00000+0  38079-4 0  9997
2 53209  97.6029  11.1848 0002945  85.3681 274.7880 15.01261876181078
STARLINK-4427           
1 53210U 22084X   25312.11641010  .00000647  00000+0  54915-4 0  9998
2 53210  97.6033  11.1887 0002078  86.9510 273.1952 15.01265417181611
STARLINK-4416           
1 53212U 22084Z   25312.42310755  .00003304  00000+0  23300-3 0  9999
2 53212  97.6022  11.6854 0001989  98.5702 261.5750 15.05660691181122
STARLINK-4414           
1 53213U 22084AA  25312.43486352 -.00000097  00000+0 -30263-5 0  9994
2 53213  97.6010  11.4917 0003494  82.0509 278.1112 15.01263407181647
STARLINK-4353           
1 53214U 22084AB  25312.17565805  .00000553  00000+0  47598-4 0  9990
2 53214  97.6032  11.2471 0002868  78.4476 281.7070 15.01262747181088
STARLINK-4335           
1 53215U 22084AC  25312.14066974  .00000015  00000+0  52242-5 0  9997
2 53215  97.6030  11.4162 0000700  65.5584 294.5716 15.05649934181615
